NORAD_CAT_ID,OBJECT_NAME,OBJECT_TYPE,EPOCH,MEAN_MOTION,ECCENTRICITY,INCLINATION,RA_OF_ASC_NODE,ARG_OF_PERICENTER,MEAN_ANOMALY,BSTAR,MEAN_MOTION_DOT,MEAN_MOTION_DDOT,TLE_LINE0,TLE_LINE1,TLE_LINE2,SEMIMAJOR_AXIS,PERIOD,APOGEE,PERIGEE,DECAYED
53823.0,STARLINK-4748,PAYLOAD,2024-07-21 00:10:53,15.08848271,0.0001072,53.2163,57.7146,97.3049,262.8065,0.0018057,0.00028573,0.0,0 STARLINK-4748,1 53823U 22114F   24203.00756192  .00028573  00000-0  18057-2 0  9990,2 53823  53.2163  57.7146 0001072  97.3049 262.8065 15.08848271103383,6917.855,95.437,540.462,538.979,0.0
53823.0,STARLINK-4748,PAYLOAD,2024-07-21 20:50:54,15.08843705,9.49e-05,53.2156,53.8498,86.964,273.1461,0.0010217,0.00016011,0.0,0 STARLINK-4748,1 53823U 22114F   24203.86868603  .00016011  00000-0  10217-2 0  9999,2 53823  53.2156  53.8498 0000949  86.9640 273.1461 15.08843705102971,6917.869,95.437,540.391,539.078,0.0
53823.0,STARLINK-4748,PAYLOAD,2024-07-22 14:20:08,15.0884682,0.0001106,53.216,50.5771,100.9812,259.1305,0.00053173,8.186e-05,0.0,0 STARLINK-4748,1 53823U 22114F   24204.59732528  .00008186  00000-0  53173-3 0  9999,2 53823  53.2160  50.5771 0001106 100.9812 259.1305 15.08846820103623,6917.86,95.437,540.49,538.959,0.0
53823.0,STARLINK-4748,PAYLOAD,2024-07-23 06:13:59,15.08862996,0.0001079,53.2162,47.6063,87.5741,272.5375,0.00063413,9.825e-05,0.0,0 STARLINK-4748,1 53823U 22114F   24205.25971720  .00009825  00000-0  63413-3 0  9991,2 53823  53.2162  47.6063 0001079  87.5741 272.5375 15.08862996103725,6917.81,95.436,540.422,538.929,0.0
53823.0,STARLINK-4748,PAYLOAD,2024-07-24 12:26:19,15.08850446,0.0006064,53.2159,41.9525,127.5462,232.6081,0.00044905,6.869e-05,0.0,0 STARLINK-4748,1 53823U 22114F   24206.51828397  .00006869  00000-0  44905-3 0  9992,2 53823  53.2159  41.9525 0006064 127.5462 232.6081 15.08850446103374,6917.848,95.437,543.908,535.518,0.0
53823.0,STARLINK-4748,PAYLOAD,2024-07-24 14:01:43,15.08833342,0.0001039,53.216,41.6571,84.7283,275.3827,0.00041777,6.366e-05,0.0,0 STARLINK-4748,1 53823U 22114F   24206.58452915  .00006366  00000-0  41777-3 0  9994,2 53823  53.2160  41.6571 0001039  84.7283 275.3827 15.08833342103925,6917.901,95.438,540.485,539.047,0.0
53823.0,STARLINK-4748,PAYLOAD,2024-07-24 21:58:39,15.08842899,0.0001248,53.2159,40.1696,81.9672,278.1462,0.00061136,9.456e-05,0.0,0 STARLINK-4748,1 53823U 22114F   24206.91572925  .00009456  00000-0  61136-3 0  9999,2 53823  53.2159  40.1696 0001248  81.9672 278.1462 15.08842899103976,6917.872,95.437,540.6,538.873,0.0
53823.0,STARLINK-4748,PAYLOAD,2024-07-25 21:49:26,15.08839378,0.000173,53.2157,35.7084,81.1215,278.9973,0.00022445,3.286e-05,0.0,0 STARLINK-4748,1 53823U 22114F   24207.90933340  .00003286  00000-0  22445-3 0  9996,2 53823  53.2157  35.7084 0001730  81.1215 278.9973 15.08839378104127,6917.882,95.438,540.944,538.55,0.0
53823.0,STARLINK-4748,PAYLOAD,2024-07-26 05:46:21,15.08843773,7.8e-05,53.2169,34.2231,96.0153,264.0928,0.00029867,4.469e-05,0.0,0 STARLINK-4748,1 53823U 22114F   24208.24052917  .00004469  00000-0  29867-3 0  9995,2 53823  53.2169  34.2231 0000780  96.0153 264.0928 15.08843773104173,6917.869,95.437,540.273,539.194,0.0
53823.0,STARLINK-4748,PAYLOAD,2024-07-26 20:04:49,15.08866452,0.000126,53.2148,31.5472,87.565,272.5487,0.00068852,0.00010695,0.0,0 STARLINK-4748,1 53823U 22114F   24208.83668084  .00010695  00000-0  68852-3 0  9993,2 53823  53.2148  31.5472 0001260  87.5650 272.5487 15.08866452103721,6917.8,95.436,540.536,538.793,0.0
53823.0,STARLINK-4748,PAYLOAD,2024-07-26 21:40:12,15.08874269,0.0001203,53.2147,31.2475,92.031,268.082,0.00092998,0.00014557,0.0,0 STARLINK-4748,1 53823U 22114F   24208.90291863  .00014557  00000-0  92998-3 0  9997,2 53823  53.2147  31.2475 0001203  92.0310 268.0820 15.08874269104278,6917.776,95.435,540.473,538.808,0.0
53823.0,STARLINK-4748,PAYLOAD,2024-07-26 23:15:35,15.08879986,0.0001205,53.2146,30.9512,88.6993,271.4137,0.0010938,0.00017182,0.0,0 STARLINK-4748,1 53823U 22114F   24208.96915710  .00017182  00000-0  10938-2 0  9997,2 53823  53.2146  30.9512 0001205  88.6993 271.4137 15.08879986103746,6917.758,95.435,540.457,538.79,0.0
53823.0,STARLINK-4748,PAYLOAD,2024-07-27 21:30:59,15.08845959,0.0001092,53.2149,26.788,99.6744,260.4371,0.00055817,8.608e-05,0.0,0 STARLINK-4748,1 53823U 22114F   24209.89652459  .00008608  00000-0  55817-3 0  9997,2 53823  53.2149  26.7880 0001092  99.6744 260.4371 15.08845959104427,6917.862,95.437,540.483,538.972,0.0
53823.0,STARLINK-4748,PAYLOAD,2024-07-28 05:27:56,15.08836179,0.000179,53.2148,25.3015,76.3954,283.7237,0.00056577,8.727e-05,0.0,0 STARLINK-4748,1 53823U 22114F   24210.22773181  .00008727  00000-0  56577-3 0  9998,2 53823  53.2148  25.3015 0001790  76.3954 283.7237 15.08836179103939,6917.892,95.438,540.995,538.519,0.0
53823.0,STARLINK-4748,PAYLOAD,2024-07-28 21:21:47,15.08839883,0.0001507,53.2175,22.3266,93.0852,267.0313,0.00026374,3.912e-05,0.0,0 STARLINK-4748,1 53823U 22114F   24210.89013291  .00003912  00000-0  26374-3 0  9993,2 53823  53.2175  22.3266 0001507  93.0852 267.0313 15.08839883104579,6917.881,95.438,540.788,538.703,0.0
53823.0,STARLINK-4748,PAYLOAD,2024-07-29 11:40:15,15.08844741,0.000157,53.2176,19.6502,92.6528,267.4644,0.00042883,6.544e-05,0.0,0 STARLINK-4748,1 53823U 22114F   24211.48629406  .00006544  00000-0  42883-3 0  9997,2 53823  53.2176  19.6502 0001570  92.6528 267.4644 15.08844741104667,6917.866,95.437,540.817,538.645,0.0
53823.0,STARLINK-4748,PAYLOAD,2024-07-29 19:37:11,15.08848144,0.0001555,53.2178,18.1635,92.682,267.435,0.00041433,6.314e-05,0.0,0 STARLINK-4748,1 53823U 22114F   24211.81749255  .00006314  00000-0  41433-3 0  9994,2 53823  53.2178  18.1635 0001555  92.6820 267.4350 15.08848144104719,6917.855,95.437,540.796,538.645,0.0
53823.0,STARLINK-4748,PAYLOAD,2024-07-30 03:34:06,15.08857709,0.0001538,53.2177,16.6774,91.1025,269.0144,0.0005183,7.974e-05,0.0,0 STARLINK-4748,1 53823U 22114F   24212.14868768  .00007974  00000-0  51830-3 0  9997,2 53823  53.2177  16.6774 0001538  91.1025 269.0144 15.08857709104229,6917.826,95.436,540.755,538.627,0.0
53823.0,STARLINK-4748,PAYLOAD,2024-07-30 21:03:21,15.08845302,0.000145,53.2174,13.405,79.5014,280.6141,0.00015442,2.171e-05,0.0,0 STARLINK-4748,1 53823U 22114F   24212.87733035  .00002171  00000-0  15442-3 0  9998,2 53823  53.2174  13.4050 0001450  79.5014 280.6141 15.08845302104333,6917.864,95.437,540.732,538.726,0.0
53823.0,STARLINK-4748,PAYLOAD,2024-07-31 14:32:36,15.0882373,0.0001266,53.2166,10.1379,92.7193,267.3944,-0.00034053,-5.701e-05,0.0,0 STARLINK-4748,1 53823U 22114F   24213.60597314 -.00005701  00000-0 -34053-3 0  9991,2 53823  53.2166  10.1379 0001266  92.7193 267.3944 15.08823730104987,6917.93,95.439,540.671,538.919,0.0
53823.0,STARLINK-4748,PAYLOAD,2024-07-31 17:43:22,15.08827449,0.0001233,53.217,9.5442,97.4353,262.6779,-0.00011479,-2.114e-05,0.0,0 STARLINK-4748,1 53823U 22114F   24213.73845429 -.00002114  00000-0 -11479-3 0  9990,2 53823  53.2170   9.5442 0001233  97.4353 262.6779 15.08827449104467,6917.919,95.438,540.637,538.931,0.0
53823.0,STARLINK-4748,PAYLOAD,2024-08-01 09:37:13,15.08856162,0.0001327,53.2169,6.569,98.5036,261.6106,0.00091343,0.00014286,0.0,0 STARLINK-4748,1 53823U 22114F   24214.40085326  .00014286  00000-0  91343-3 0  9996,2 53823  53.2169   6.5690 0001327  98.5036 261.6106 15.08856162104569,6917.831,95.437,540.614,538.778,0.0
53823.0,STARLINK-4748,PAYLOAD,2024-08-01 20:44:55,15.08871389,0.0001081,53.2147,4.4858,87.7641,272.3475,0.001478,0.00023333,0.0,0 STARLINK-4748,1 53823U 22114F   24214.86452942  .00023333  00000-0  14780-2 0  9990,2 53823  53.2147   4.4858 0001081  87.7641 272.3475 15.08871389105171,6917.784,95.436,540.397,538.902,0.0
53823.0,STARLINK-4748,PAYLOAD,2024-08-02 09:28:00,15.08860328,0.0003308,53.2145,2.1033,111.2923,248.8423,0.0013162,0.00020734,0.0,0 STARLINK-4748,1 53823U 22114F   24215.39444960  .00020734  00000-0  13162-2 0  9995,2 53823  53.2145   2.1033 0003308 111.2923 248.8423 15.08860328104710,6917.818,95.436,541.972,537.395,0.0
53823.0,STARLINK-4748,PAYLOAD,2024-08-02 14:14:09,15.08851688,0.0002159,53.2151,1.2077,141.3552,218.7595,0.00057165,8.824e-05,0.0,0 STARLINK-4748,1 53823U 22114F   24215.59316628  .00008824  00000-0  57165-3 0  9994,2 53823  53.2151   1.2077 0002159 141.3552 218.7595 15.08851688105288,6917.845,95.437,541.203,538.216,0.0
53823.0,STARLINK-4748,PAYLOAD,2024-08-02 19:00:19,15.08844172,0.0001223,53.2163,0.3206,111.9194,248.1928,0.00026144,3.876e-05,0.0,0 STARLINK-4748,1 53823U 22114F   24215.79189042  .00003876  00000-0  26144-3 0  9999,2 53823  53.2163   0.3206 0001223 111.9194 248.1928 15.08844172104771,6917.868,95.437,540.579,538.887,0.0
53823.0,STARLINK-4748,PAYLOAD,2024-08-03 14:04:57,15.08832718,0.00016,53.2167,356.7514,95.0816,265.0359,3.49e-07,-2.82e-06,0.0,0 STARLINK-4748,1 53823U 22114F   24216.58677384 -.00000282  00000-0  34900-6 0  9999,2 53823  53.2167 356.7514 0001600  95.0816 265.0359 15.08832718105430,6917.903,95.438,540.875,538.661,0.0
53823.0,STARLINK-4748,PAYLOAD,2024-08-03 18:51:06,15.08839686,0.0001477,53.2169,355.8588,94.8579,265.2581,0.00034698,5.238e-05,0.0,0 STARLINK-4748,1 53823U 22114F   24216.78549383  .00005238  00000-0  34698-3 0  9994,2 53823  53.2169 355.8588 0001477  94.8579 265.2581 15.08839686104921,6917.881,95.438,540.768,538.725,0.0
53823.0,STARLINK-4748,PAYLOAD,2024-08-04 15:31:07,15.08839061,0.0002144,53.2176,351.9942,103.5195,256.6036,0.00024459,3.607e-05,0.0,0 STARLINK-4748,1 53823U 22114F   24217.64661742  .00003607  00000-0  24459-3 0  9996,2 53823  53.2176 351.9942 0002144 103.5195 256.6036 15.08839061105594,6917.883,95.438,541.231,538.265,0.0
53823.0,STARLINK-4748,PAYLOAD,2024-08-05 02:38:48,15.08871589,0.0001735,53.2187,349.915,97.0771,263.0418,0.00090915,0.00014223,0.0,0 STARLINK-4748,1 53823U 22114F   24218.11028757  .00014223  00000-0  90915-3 0  9998,2 53823  53.2187 349.9150 0001735  97.0771 263.0418 15.08871589105122,6917.784,95.436,540.849,538.449,0.0
